start=new Date('2022-06-28T00:00:00.000Z').valueOf();
sats=[{"ELEMENT_SET_NO":"999","SEMIMAJOR_AXIS":"6895.312","RA_OF_ASC_NODE":"137.2388","TLE_LINE1":"1 44742U 19074AF  22178.16910809  .00020031  00000-0  10360-2 0  9994","DECAY_DATE":null,"REF_FRAME":"TEME","NORAD_CAT_ID":"44742","LAUNCH_DATE":"2019-11-11","OBJECT_ID":"2019-074AF","FILE":"3503902","OBJECT_TYPE":"PAYLOAD","ARG_OF_PERICENTER":"64.9141","MEAN_MOTION_DOT":"0.00020031","PERIAPSIS":"515.006","MEAN_ELEMENT_THEORY":"SGP4","RCS_SIZE":"LARGE","OBJECT_NAME":"STARLINK-1037","APOAPSIS":"519.349","BSTAR":"0.00103600000000","REV_AT_EPOCH":"14495","TLE_LINE2":"2 44742  52.9942 137.2388 0003149  64.9141 295.2178 15.16253629144955","EPOCH":"2022-06-27T04:03:30.938976","TIME_SYSTEM":"UTC","CENTER_NAME":"EARTH","MEAN_MOTION_DDOT":"0.0000000000000","CLASSIFICATION_TYPE":"U","ECCENTRICITY":"0.00031490","SITE":"AFETR","EPHEMERIS_TYPE":"0","COUNTRY_CODE":"US","MEAN_MOTION":"15.16253629","INCLINATION":"52.9942","GP_ID":"206959032","PERIOD":"94.971","MEAN_ANOMALY":"295.2178"},{"PERIOD":"95.593","MEAN_ANOMALY":"296.3201","GP_ID":"206988330","INCLINATION":"53.0549","SITE":"AFETR","EPHEMERIS_TYPE":"0","COUNTRY_CODE":"US","MEAN_MOTION":"15.06393471","MEAN_MOTION_DDOT":"0.0000000000000","ECCENTRICITY":"0.00016630","CLASSIFICATION_TYPE":"U","EPOCH":"2022-06-27T16:12:44.036352","CENTER_NAME":"EARTH","TIME_SYSTEM":"UTC","REV_AT_EPOCH":"14465","TLE_LINE2":"2 44743  53.0549 171.5632 0001663  63.7959 296.3201 15.06393471144652","OBJECT_NAME":"STARLINK-1038","APOAPSIS":"548.385","BSTAR":"-0.00005222100000","MEAN_MOTION_DOT":"-0.00001059","PERIAPSIS":"546.082","MEAN_ELEMENT_THEORY":"SGP4","RCS_SIZE":"LARGE","OBJECT_TYPE":"PAYLOAD","ARG_OF_PERICENTER":"63.7959","FILE":"3504144","LAUNCH_DATE":"2019-11-11","OBJECT_ID":"2019-074AG","DECAY_DATE":null,"REF_FRAME":"TEME","NORAD_CAT_ID":"44743","SEMIMAJOR_AXIS":"6925.369","ELEMENT_SET_NO":"999","TLE_LINE1":"1 44743U 19074AG  22178.67550968 -.00001059  00000-0 -52221-4 0  9992","RA_OF_ASC_NODE":"171.5632"},{"OBJECT_TYPE":"PAYLOAD","ARG_OF_PERICENTER":"70.2714","FILE":"3504144","OBJECT_ID":"2019-074AH","LAUNCH_DATE":"2019-11-11","NORAD_CAT_ID":"44744","DECAY_DATE":null,"REF_FRAME":"TEME","TLE_LINE1":"1 44744U 19074AH  22178.68656738  .00000924  00000-0  80939-4 0  9991","RA_OF_ASC_NODE":"171.5090","SEMIMAJOR_AXIS":"6925.374","ELEMENT_SET_NO":"999","MEAN_ANOMALY":"289.8447","PERIOD":"95.593","GP_ID":"206988580","INCLINATION":"53.0547","COUNTRY_CODE":"US","MEAN_MOTION":"15.06391842","SITE":"AFETR","EPHEMERIS_TYPE":"0","ECCENTRICITY":"0.00015910","CLASSIFICATION_TYPE":"U","MEAN_MOTION_DDOT":"0.0000000000000","TIME_SYSTEM":"UTC","CENTER_NAME":"EARTH","EPOCH":"2022-06-27T16:28:39.421632","REV_AT_EPOCH":"14456","TLE_LINE2":"2 44744  53.0547 171.5090 0001591  70.2714 289.8447 15.06391842144560","APOAPSIS":"548.340","BSTAR":"0.00008093900000","OBJECT_NAME":"STARLINK-1039","MEAN_ELEMENT_THEORY":"SGP4","RCS_SIZE":"LARGE","MEAN_MOTION_DOT":"0.00000924","PERIAPSIS":"546.137"},{"OBJECT_ID":"2019-074AK","LAUNCH_DATE":"2019-11-11","NORAD_CAT_ID":"44746","DECAY_DATE":null,"REF_FRAME":"TEME","TLE_LINE1":"1 44746U 19074AK  22178.67181538 -.00001011  00000-0 -48964-4 0  9995","RA_OF_ASC_NODE":"171.5831","SEMIMAJOR_AXIS":"6925.360","ELEMENT_SET_NO":"999","OBJECT_TYPE":"PAYLOAD","ARG_OF_PERICENTER":"50.2827","FILE":"3504144","CENTER_NAME":"EARTH","TIME_SYSTEM":"UTC","EPOCH":"2022-06-27T16:07:24.848832","REV_AT_EPOCH":"14456","TLE_LINE2":"2 44746  53.0539 171.5831 0001917  50.2827 309.8331 15.06396365144561","APOAPSIS":"548.552","BSTAR":"-0.00004896400000","OBJECT_NAME":"STARLINK-1041","MEAN_ELEMENT_THEORY":"SGP4","RCS_SIZE":"LARGE","MEAN_MOTION_DOT":"-0.00001011","PERIAPSIS":"545.897","PERIOD":"95.592","MEAN_ANOMALY":"309.8331","GP_ID":"206989332","INCLINATION":"53.0539","COUNTRY_CODE":"US","MEAN_MOTION":"15.06396365","SITE":"AFETR","EPHEMERIS_TYPE":"0","ECCENTRICITY":"0.00019170","CLASSIFICATION_TYPE":"U","MEAN_MOTION_DDOT":"0.0000000000000"},{"ARG_OF_PERICENTER":"66.3407","OBJECT_TYPE":"PAYLOAD","FILE":"3504144","LAUNCH_DATE":"2019-11-11","OBJECT_ID":"2019-074AL","SEMIMAJOR_AXIS":"6925.344","ELEMENT_SET_NO":"999","RA_OF_ASC_NODE":"171.4552","TLE_LINE1":"1 44747U 19074AL  22178.70130461  .00000817  00000-0  73718-4 0  9995","REF_FRAME":"TEME","DECAY_DATE":null,"NORAD_CAT_ID":"44747","GP_ID":"206989578","INCLINATION":"53.0555","PERIOD":"95.592","MEAN_ANOMALY":"293.7749","MEAN_MOTION_DDOT":"0.0000000000000","ECCENTRICITY":"0.00015960","CLASSIFICATION_TYPE":"U","EPHEMERIS_TYPE":"0","SITE":"AFETR","MEAN_MOTION":"15.06401352","COUNTRY_CODE":"US","TLE_LINE2":"2 44747  53.0555 171.4552 0001596  66.3407 293.7749 15.06401352144572","REV_AT_EPOCH":"14457","EPOCH":"2022-06-27T16:49:52.718304","TIME_SYSTEM":"UTC","CENTER_NAME":"EARTH","PERIAPSIS":"546.104","MEAN_MOTION_DOT":"0.00000817","RCS_SIZE":"LARGE","MEAN_ELEMENT_THEORY":"SGP4","OBJECT_NAME":"STARLINK-1042","BSTAR":"0.00007371800000","APOAPSIS":"548.315"},{"FILE":"3503902","ARG_OF_PERICENTER":"61.1123","OBJECT_TYPE":"PAYLOAD","RA_OF_ASC_NODE":"172.4987","TLE_LINE1":"1 44748U 19074AM  22178.46542424  .00000750  00000-0  69269-4 0  9997","ELEMENT_SET_NO":"999","SEMIMAJOR_AXIS":"6925.357","NORAD_CAT_ID":"44748","REF_FRAME":"TEME","DECAY_DATE":null,"OBJECT_ID":"2019-074AM","LAUNCH_DATE":"2019-11-11","CLASSIFICATION_TYPE":"U","ECCENTRICITY":"0.00015690","MEAN_MOTION_DDOT":"0.0000000000000","MEAN_MOTION":"15.06397323","COUNTRY_CODE":"US","EPHEMERIS_TYPE":"0","SITE":"AFETR","INCLINATION":"53.0547","GP_ID":"206958783","PERIOD":"95.592","MEAN_ANOMALY":"299.0023","RCS_SIZE":"LARGE","MEAN_ELEMENT_THEORY":"SGP4","PERIAPSIS":"546.135","MEAN_MOTION_DOT":"0.00000750","BSTAR":"0.00006926900000","APOAPSIS":"548.308","OBJECT_NAME":"STARLINK-1043","TLE_LINE2":"2 44748  53.0547 172.4987 0001569  61.1123 299.0023 15.06397323144537","REV_AT_EPOCH":"14453","CENTER_NAME":"EARTH","TIME_SYSTEM":"UTC","EPOCH":"2022-06-27T11:10:12.654336"},{"MEAN_ANOMALY":"300.7709","PERIOD":"95.592","INCLINATION":"53.0543","GP_ID":"206989080","MEAN_MOTION":"15.06402345","COUNTRY_CODE":"US","EPHEMERIS_TYPE":"0","SITE":"AFETR","CLASSIFICATION_TYPE":"U","ECCENTRICITY":"0.00017750","MEAN_MOTION_DDOT":"0.0000000000000","TIME_SYSTEM":"UTC","CENTER_NAME":"EARTH","EPOCH":"2022-06-27T16:18:02.924064","TLE_LINE2":"2 44751  53.0543 171.5475 0001775  59.3455 300.7709 15.06402345144560","REV_AT_EPOCH":"14456","BSTAR":"0.00007852000000","APOAPSIS":"548.436","OBJECT_NAME":"STARLINK-1046","RCS_SIZE":"LARGE","MEAN_ELEMENT_THEORY":"SGP4","PERIAPSIS":"545.977","MEAN_MOTION_DOT":"0.00000888","ARG_OF_PERICENTER":"59.3455","OBJECT_TYPE":"PAYLOAD","FILE":"3504144","OBJECT_ID":"2019-074AQ","LAUNCH_DATE":"2019-11-11","NORAD_CAT_ID":"44751","DECAY_DATE":null,"REF_FRAME":"TEME","RA_OF_ASC_NODE":"171.5475","TLE_LINE1":"1 44751U 19074AQ  22178.67920051  .00000888  00000-0  78520-4 0  9992","ELEMENT_SET_NO":"999","SEMIMAJOR_AXIS":"6925.341"},{"OBJECT_ID":"2019-074AR","LAUNCH_DATE":"2019-11-11","NORAD_CAT_ID":"44752","REF_FRAME":"TEME","DECAY_DATE":null,"TLE_LINE1":"1 44752U 19074AR  22178.63312381 -.00000369  00000-0 -58461-5 0  9999","RA_OF_ASC_NODE":"151.7558","SEMIMAJOR_AXIS":"6925.352","ELEMENT_SET_NO":"999","OBJECT_TYPE":"PAYLOAD","ARG_OF_PERICENTER":"56.5455","FILE":"3504144","CENTER_NAME":"EARTH","TIME_SYSTEM":"UTC","EPOCH":"2022-06-27T15:11:41.897184","REV_AT_EPOCH":"14483","TLE_LINE2":"2 44752  53.0538 151.7558 0001904  56.5455 303.5716 15.06398768144832","APOAPSIS":"548.536","BSTAR":"-0.00000584610000","OBJECT_NAME":"STARLINK-1047","MEAN_ELEMENT_THEORY":"SGP4","RCS_SIZE":"LARGE","MEAN_MOTION_DOT":"-0.00000369","PERIAPSIS":"545.899","PERIOD":"95.592","MEAN_ANOMALY":"303.5716","GP_ID":"206989832","INCLINATION":"53.0538","COUNTRY_CODE":"US","MEAN_MOTION":"15.06398768","SITE":"AFETR","EPHEMERIS_TYPE":"0","CLASSIFICATION_TYPE":"U","ECCENTRICITY":"0.00019040","MEAN_MOTION_DDOT":"0.0000000000000"},{"OBJECT_TYPE":"PAYLOAD","ARG_OF_PERICENTER":"72.0173","FILE":"3504144","LAUNCH_DATE":"2019-11-11","OBJECT_ID":"2019-074AS","SEMIMAJOR_AXIS":"6925.365","ELEMENT_SET_NO":"999","TLE_LINE1":"1 44753U 19074AS  22178.83768564 -.00000709  00000-0 -28663-4 0  9998","RA_OF_ASC_NODE":"130.8329","DECAY_DATE":null,"REF_FRAME":"TEME","NORAD_CAT_ID":"44753","INCLINATION":"53.0559","GP_ID":"206990078","PERIOD":"95.592","MEAN_ANOMALY":"288.1022","MEAN_MOTION_DDOT":"0.0000000000000","ECCENTRICITY":"0.00018950","CLASSIFICATION_TYPE":"U","SITE":"AFETR","EPHEMERIS_TYPE":"0","COUNTRY_CODE":"US","MEAN_MOTION":"15.06394544","REV_AT_EPOCH":"14514","TLE_LINE2":"2 44753  53.0559 130.8329 0001895  72.0173 288.1022 15.06394544145140","EPOCH":"2022-06-27T20:06:16.039296","CENTER_NAME":"EARTH","TIME_SYSTEM":"UTC","MEAN_MOTION_DOT":"-0.00000709","PERIAPSIS":"545.918","MEAN_ELEMENT_THEORY":"SGP4","RCS_SIZE":"LARGE","OBJECT_NAME":"STARLINK-1048","APOAPSIS":"548.543","BSTAR":"-0.00002866300000"},{"PERIOD":"95.592","MEAN_ANOMALY":"296.3199","INCLINATION":"53.0536","GP_ID":"206988331","COUNTRY_CODE":"US","MEAN_MOTION":"15.06395422","SITE":"AFETR","EPHEMERIS_TYPE":"0","CLASSIFICATION_TYPE":"U","ECCENTRICITY":"0.00017600","MEAN_MOTION_DDOT":"0.0000000000000","TIME_SYSTEM":"UTC","CENTER_NAME":"EARTH","EPOCH":"2022-06-27T20:11:34.592640","REV_AT_EPOCH":"14514","TLE_LINE2":"2 44754  53.0536 130.8237 0001760  63.7971 296.3199 15.06395422145140","APOAPSIS":"548.446","BSTAR":"-0.00003835900000","OBJECT_NAME":"STARLINK-1049","MEAN_ELEMENT_THEORY":"SGP4","RCS_SIZE":"LARGE","MEAN_MOTION_DOT":"-0.00000853","PERIAPSIS":"546.009","OBJECT_TYPE":"PAYLOAD","ARG_OF_PERICENTER":"63.7971","FILE":"3504144","OBJECT_ID":"2019-074AT","LAUNCH_DATE":"2019-11-11","NORAD_CAT_ID":"44754","REF_FRAME":"TEME","DECAY_DATE":null,"RA_OF_ASC_NODE":"130.8237","TLE_LINE1":"1 44754U 19074AT  22178.84137260 -.00000853  00000-0 -38359-4 0  9996","SEMIMAJOR_AXIS":"6925.363","ELEMENT_SET_NO":"999"}];
